NORAD_CAT_ID,OBJECT_NAME,OBJECT_TYPE,EPOCH,MEAN_MOTION,ECCENTRICITY,INCLINATION,RA_OF_ASC_NODE,ARG_OF_PERICENTER,MEAN_ANOMALY,BSTAR,MEAN_MOTION_DOT,MEAN_MOTION_DDOT,TLE_LINE0,TLE_LINE1,TLE_LINE2,SEMIMAJOR_AXIS,PERIOD,APOGEE,PERIGEE,DECAYED
51966.0,STARLINK-3699,PAYLOAD,2022-09-02 16:00:00,15.08854323,0.0001409,53.2195,33.3155,67.5815,73.2949,-0.0023809,-0.00037995,0.0,0 STARLINK-3699,1 51966U 22025L   22245.66667824 -.00037995  00000-0 -23809-2 0  9997,2 51966  53.2195  33.3155 0001409  67.5815  73.2949 15.08854323 28452,6917.837,95.437,540.6759999999998,538.727,0.0
51966.0,STARLINK-3699,PAYLOAD,2022-09-02 22:00:01,15.08826524,0.0001365999999999,53.2192,32.1935,61.9602,357.6793,0.0017546,0.00027736,0.0,0 STARLINK-3699,1 51966U 22025L   22245.91668981  .00027736  00000-0  17546-2 0  9991,2 51966  53.2192  32.1935 0001366  61.9602 357.6793 15.08826524  1309,6917.922,95.438,540.732,538.842,0.0
51966.0,STARLINK-3699,PAYLOAD,2022-09-03 08:00:01,15.08826535,0.0001239,53.2193,30.3215,74.788,89.279,0.0025198,0.00040028,0.0,0 STARLINK-3699,1 51966U 22025L   22246.33334491  .00040028  00000-0  25198-2 0  9995,2 51966  53.2193  30.3215 0001239  74.7880  89.2790 15.08826535 28553,6917.922,95.438,540.644,538.929,0.0
51966.0,STARLINK-3699,PAYLOAD,2022-09-03 14:00:01,15.0886329,0.0001319,53.2193,29.2006,69.6296,13.129,-0.0017266999999999,-0.0002768,0.0,0 STARLINK-3699,1 51966U 22025L   22246.58334491 -.00027680  00000-0 -17267-2 0  9991,2 51966  53.2193  29.2006 0001319  69.6296  13.1290 15.08863290  1305,6917.809,95.436,540.587,538.762,0.0
51966.0,STARLINK-3699,PAYLOAD,2022-09-03 22:00:00,15.08855108,0.0001401,53.2188,27.7047,62.858,31.5171,-0.0016374,-0.00026263,0.0,0 STARLINK-3699,1 51966U 22025L   22246.91667824 -.00026263  00000-0 -16374-2 0  9991,2 51966  53.2188  27.7047 0001401  62.8580  31.5171 15.08855108 28647,6917.834,95.437,540.668,538.73,0.0
51966.0,STARLINK-3699,PAYLOAD,2022-09-04 14:00:01,15.08856761,0.0001409999999999,53.2187,24.7117,70.5387,47.0934,-0.0016199,-0.00025988,0.0,0 STARLINK-3699,1 51966U 22025L   22247.58335648 -.00025988  00000-0 -16199-2 0  9999,2 51966  53.2187  24.7117 0001410  70.5387  47.0934 15.08856761  1301,6917.829000000002,95.436,540.67,538.719,0.0
51966.0,STARLINK-3699,PAYLOAD,2022-09-04 20:00:01,15.08848901,0.0001398,53.2186,23.5902,63.0462,333.2453,0.00070489,0.00010951,0.0,0 STARLINK-3699,1 51966U 22025L   22247.83334491  .00010951  00000-0  70489-3 0  9997,2 51966  53.2186  23.5902 0001398  63.0462 333.2453 15.08848901 28778,6917.853,95.437,540.685,538.751,0.0
51966.0,STARLINK-3699,PAYLOAD,2022-09-05 06:00:00,15.08801469,0.0001381,53.2176,21.7186,72.0919,68.6682,0.0055023,0.00088286,0.0,0 STARLINK-3699,1 51966U 22025L   22248.25001157  .00088286  00000-0  55023-2 0  9996,2 51966  53.2176  21.7186 0001381  72.0919  68.6682 15.08801469 28849,6917.998000000001,95.44,540.819,538.908,0.0
51966.0,STARLINK-3699,PAYLOAD,2022-09-05 14:00:01,15.08831709,0.0001458,53.2184,20.2228,68.6759,83.647,-0.00058583,-9.597e-05,0.0,0 STARLINK-3699,1 51966U 22025L   22248.58334491 -.00009597  00000-0 -58583-3 0  9997,2 51966  53.2184  20.2228 0001458  68.6759  83.6470 15.08831709 28894,6917.906,95.438,540.779,538.762,0.0
51966.0,STARLINK-3699,PAYLOAD,2022-09-05 22:00:00,15.08835289,0.000148,53.2182,18.7267,62.947,100.9516,0.0010700999999999,0.00016781,0.0,0 STARLINK-3699,1 51966U 22025L   22248.91667824  .00016781  00000-0  10701-2 0  9993,2 51966  53.2182  18.7267 0001480  62.9470 100.9516 15.08835289  1307,6917.895,95.438,540.784,538.736,0.0
51966.0,STARLINK-3699,PAYLOAD,2022-09-06 06:00:00,15.08839811,0.0001431,53.2183,17.2287,71.8541,103.6465,0.00092026,0.00014388,0.0,0 STARLINK-3699,1 51966U 22025L   22249.25001157  .00014388  00000-0  92026-3 0  9994,2 51966  53.2183  17.2287 0001431  71.8541 103.6465 15.08839811 28990,6917.880999999999,95.438,540.736,538.756,0.0
51966.0,STARLINK-3699,PAYLOAD,2022-09-06 14:00:01,15.08836802,0.0001581,53.2184,15.7337,67.5887,119.5099,-0.00051311,-8.444e-05,0.0,0 STARLINK-3699,1 51966U 22025L   22249.58334491 -.00008444  00000-0 -51311-3 0  9990,2 51966  53.2184  15.7337 0001581  67.5887 119.5099 15.08836802  1303,6917.89,95.438,540.849,538.661,0.0
51966.0,STARLINK-3699,PAYLOAD,2022-09-06 22:00:00,15.08851455,0.0001534,53.2185,14.2374,62.8311,135.8504,-0.0026074,-0.00041559,0.0,0 STARLINK-3699,1 51966U 22025L   22249.91667824 -.00041559  00000-0 -26074-2 0  9997,2 51966  53.2185  14.2374 0001534  62.8311 135.8504 15.08851455 29096,6917.845,95.437,540.7719999999998,538.649,0.0
51966.0,STARLINK-3699,PAYLOAD,2022-09-07 14:00:01,15.08840029,0.0001533,53.2189,11.2446,63.8643,157.991,-0.00037343,-6.226e-05,0.0,0 STARLINK-3699,1 51966U 22025L   22250.58334491 -.00006226  00000-0 -37343-3 0  9997,2 51966  53.2189  11.2446 0001533  63.8643 157.9910 15.08840029 29197,6917.88,95.438,540.806,538.685,0.0
51966.0,STARLINK-3699,PAYLOAD,2022-09-07 22:00:00,15.08864833,0.0001492,53.2191,9.7482,60.0481,173.396,-0.0016960999999999,-0.00027198,0.0,0 STARLINK-3699,1 51966U 22025L   22250.91667824 -.00027198  00000-0 -16961-2 0  9996,2 51966  53.2191   9.7482 0001492  60.0481 173.3960 15.08864833  1304,6917.804,95.436,540.702,538.637,0.0
51966.0,STARLINK-3699,PAYLOAD,2022-09-08 06:00:00,15.08827303,0.0001351,53.2194,8.2503,66.1914,178.8808,0.0023218,0.00036844,0.0,0 STARLINK-3699,1 51966U 22025L   22251.25001157  .00036844  00000-0  23218-2 0  9994,2 51966  53.2194   8.2503 0001351  66.1914 178.8808 15.08827303 29297,6917.919,95.438,540.719,538.85,0.0
51966.0,STARLINK-3699,PAYLOAD,2022-09-08 14:00:01,15.08849199,0.0001476,53.2196,6.7557,59.8457,196.8177,-0.00042095,-6.983e-05,0.0,0 STARLINK-3699,1 51966U 22025L   22251.58334491 -.00006983  00000-0 -42095-3 0  9998,2 51966  53.2196   6.7557 0001476  59.8457 196.8177 15.08849199  1308,6917.852,95.437,540.738,538.696,0.0
51966.0,STARLINK-3699,PAYLOAD,2022-09-08 22:00:00,15.08872386,0.0001494,53.2197,5.2592,58.033,210.236,-0.0030421999999999,-0.00048422,0.0,0 STARLINK-3699,1 51966U 22025L   22251.91667824 -.00048422  00000-0 -30422-2 0  9998,2 51966  53.2197   5.2592 0001494  58.0330 210.2360 15.08872386  1302,6917.781,95.436,540.68,538.613,0.0
51966.0,STARLINK-3699,PAYLOAD,2022-09-09 00:00:02,15.08861934,0.0001484,53.2198,4.8845,60.6653,300.5738,-0.0022811999999999,-0.00036432,0.0,0 STARLINK-3699,1 51966U 22025L   22252.00002315 -.00036432  00000-0 -22812-2 0  9999,2 51966  53.2198   4.8845 0001484  60.6653 300.5738 15.08861934 29405,6917.813,95.436,540.705,538.6519999999998,0.0
51966.0,STARLINK-3699,PAYLOAD,2022-09-09 14:00:01,15.08872737,0.000152,53.22,2.2669,59.6819,231.8061,-0.0031896,-0.00050738,0.0,0 STARLINK-3699,1 51966U 22025L   22252.58334491 -.00050738  00000-0 -31896-2 0  9992,2 51966  53.2200   2.2669 0001520  59.6819 231.8061 15.08872737  1305,6917.78,95.435,540.697,538.594,0.0
51966.0,STARLINK-3699,PAYLOAD,2022-09-09 22:00:00,15.08855164,0.0001473,53.2197,0.7703,57.3622,245.7357,-0.0035966,-0.00057098,0.0,0 STARLINK-3699,1 51966U 22025L   22252.91667824 -.00057098  00000-0 -35966-2 0  9996,2 51966  53.2197   0.7703 0001473  57.3622 245.7357 15.08855164  1303,6917.834,95.437,540.7180000000002,538.68,0.0
51966.0,STARLINK-3699,PAYLOAD,2022-09-10 14:00:01,15.08848672,0.0001501,53.2201,357.7785,59.6028,266.6778,-0.0014572,-0.0002340999999999,0.0,0 STARLINK-3699,1 51966U 22025L   22253.58334491 -.00023410  00000-0 -14572-2 0  9992,2 51966  53.2201 357.7785 0001501  59.6028 266.6778 15.08848672 29643,6917.854,95.437,540.757,538.681,0.0
51966.0,STARLINK-3699,PAYLOAD,2022-09-10 22:00:00,15.08858184,0.000143,53.2195,356.2816,57.3652,280.5079,-0.0054467,-0.00085981,0.0,0 STARLINK-3699,1 51966U 22025L   22253.91667824 -.00085981  00000-0 -54467-2 0  9996,2 51966  53.2195 356.2816 0001430  57.3652 280.5079 15.08858184  1304,6917.825,95.436,540.679,538.701,0.0
51966.0,STARLINK-3699,PAYLOAD,2022-09-11 14:00:01,15.08824618,0.0001525,53.2196,353.2902,59.4587,301.5831,0.00062105,9.606e-05,0.0,0 STARLINK-3699,1 51966U 22025L   22254.58334491  .00009606  00000-0  62105-3 0  9998,2 51966  53.2196 353.2902 0001525  59.4587 301.5831 15.08824618  1319,6917.927,95.439,540.847,538.737,0.0
51966.0,STARLINK-3699,PAYLOAD,2022-09-11 22:00:00,15.08863038,0.0001408,53.2192,351.7932,58.3701,314.24,-0.003985,-0.00063192,0.0,0 STARLINK-3699,1 51966U 22025L   22254.91667824 -.00063192  00000-0 -39850-2 0  9996,2 51966  53.2192 351.7932 0001408  58.3701 314.2400 15.08863038  1308,6917.81,95.436,540.649,538.701,0.0
51966.0,STARLINK-3699,PAYLOAD,2022-09-12 14:00:01,15.08831866,0.000143,53.219,348.8017,56.61600000000001,339.1753,0.00091866,0.00014359,0.0,0 STARLINK-3699,1 51966U 22025L   22255.58334491  .00014359  00000-0  91866-3 0  9996,2 51966  53.2190 348.8017 0001430  56.6160 339.1753 15.08831866  1303,6917.905,95.438,540.76,538.781,0.0
51966.0,STARLINK-3699,PAYLOAD,2022-09-12 22:00:00,15.08869693,0.0001382,53.2187,347.3044,56.2353,351.1487,-0.0011098,-0.00017921,0.0,0 STARLINK-3699,1 51966U 22025L   22255.91667824 -.00017921  00000-0 -11098-2 0  9990,2 51966  53.2187 347.3044 0001382  56.2353 351.1487 15.08869693  1306,6917.79,95.436,540.611,538.6990000000002,0.0
51966.0,STARLINK-3699,PAYLOAD,2022-09-13 14:00:01,15.08845236,0.0001551999999999,53.2185,344.3127,55.1439,15.4842,-0.0011754,-0.00018948,0.0,0 STARLINK-3699,1 51966U 22025L   22256.58334491 -.00018948  00000-0 -11754-2 0  9994,2 51966  53.2185 344.3127 0001552  55.1439  15.4842 15.08845236  1307,6917.864000000001,95.437,540.803,538.656,0.0
51966.0,STARLINK-3699,PAYLOAD,2022-09-13 22:00:00,15.08830455,0.0001483,53.2185,342.8154,56.7294,25.4745,-0.0018165,-0.00029074,0.0,0 STARLINK-3699,1 51966U 22025L   22256.91667824 -.00029074  00000-0 -18165-2 0  9995,2 51966  53.2185 342.8154 0001483  56.7294  25.4745 15.08830455  1309,6917.91,95.438,540.8,538.749,0.0
